<?xml version="1.0" encoding="UTF-8"?>
<gpx version="1.1" creator="Catch 359" xmlns="http://www.topografix.com/GPX/1/1">
  <metadata><name>Catch 359 - the 360 start spots</name></metadata>
  <wpt lat="56.161764" lon="10.211100"><name>Catch 359 spot 0</name><desc>Start spot 0 of 360, 0.0 km along the route</desc></wpt>
  <wpt lat="56.150921" lon="10.199861"><name>Catch 359 spot 1</name><desc>Start spot 1 of 360, 1.6 km along the route</desc></wpt>
  <wpt lat="56.140015" lon="10.190309"><name>Catch 359 spot 2</name><desc>Start spot 2 of 360, 3.2 km along the route</desc></wpt>
  <wpt lat="56.130882" lon="10.178043"><name>Catch 359 spot 3</name><desc>Start spot 3 of 360, 4.8 km along the route</desc></wpt>
  <wpt lat="56.119272" lon="10.166359"><name>Catch 359 spot 4</name><desc>Start spot 4 of 360, 6.4 km along the route</desc></wpt>
  <wpt lat="56.107949" lon="10.150142"><name>Catch 359 spot 5</name><desc>Start spot 5 of 360, 8.0 km along the route</desc></wpt>
  <wpt lat="56.095502" lon="10.138424"><name>Catch 359 spot 6</name><desc>Start spot 6 of 360, 9.6 km along the route</desc></wpt>
  <wpt lat="56.085380" lon="10.124636"><name>Catch 359 spot 7</name><desc>Start spot 7 of 360, 11.2 km along the route</desc></wpt>
  <wpt lat="56.077135" lon="10.109918"><name>Catch 359 spot 8</name><desc>Start spot 8 of 360, 12.8 km along the route</desc></wpt>
  <wpt lat="56.065883" lon="10.093517"><name>Catch 359 spot 9</name><desc>Start spot 9 of 360, 14.4 km along the route</desc></wpt>
  <wpt lat="56.052432" lon="10.084082"><name>Catch 359 spot 10</name><desc>Start spot 10 of 360, 16.1 km along the route</desc></wpt>
  <wpt lat="56.040603" lon="10.078106"><name>Catch 359 spot 11</name><desc>Start spot 11 of 360, 17.7 km along the route</desc></wpt>
  <wpt lat="56.037726" lon="10.058541"><name>Catch 359 spot 12</name><desc>Start spot 12 of 360, 19.3 km along the route</desc></wpt>
  <wpt lat="56.031563" lon="10.039298"><name>Catch 359 spot 13</name><desc>Start spot 13 of 360, 20.9 km along the route</desc></wpt>
  <wpt lat="56.023116" lon="10.023445"><name>Catch 359 spot 14</name><desc>Start spot 14 of 360, 22.5 km along the route</desc></wpt>
  <wpt lat="56.016368" lon="10.002382"><name>Catch 359 spot 15</name><desc>Start spot 15 of 360, 24.1 km along the route</desc></wpt>
  <wpt lat="56.009980" lon="9.983821"><name>Catch 359 spot 16</name><desc>Start spot 16 of 360, 25.7 km along the route</desc></wpt>
  <wpt lat="55.996484" lon="9.986039"><name>Catch 359 spot 17</name><desc>Start spot 17 of 360, 27.3 km along the route</desc></wpt>
  <wpt lat="55.985582" lon="9.992395"><name>Catch 359 spot 18</name><desc>Start spot 18 of 360, 28.9 km along the route</desc></wpt>
  <wpt lat="55.981131" lon="9.985069"><name>Catch 359 spot 19</name><desc>Start spot 19 of 360, 30.5 km along the route</desc></wpt>
  <wpt lat="55.977516" lon="9.963734"><name>Catch 359 spot 20</name><desc>Start spot 20 of 360, 32.1 km along the route</desc></wpt>
  <wpt lat="55.979699" lon="9.942314"><name>Catch 359 spot 21</name><desc>Start spot 21 of 360, 33.7 km along the route</desc></wpt>
  <wpt lat="55.983049" lon="9.920444"><name>Catch 359 spot 22</name><desc>Start spot 22 of 360, 35.3 km along the route</desc></wpt>
  <wpt lat="55.972266" lon="9.906788"><name>Catch 359 spot 23</name><desc>Start spot 23 of 360, 36.9 km along the route</desc></wpt>
  <wpt lat="55.960168" lon="9.900944"><name>Catch 359 spot 24</name><desc>Start spot 24 of 360, 38.5 km along the route</desc></wpt>
  <wpt lat="55.948617" lon="9.892386"><name>Catch 359 spot 25</name><desc>Start spot 25 of 360, 40.1 km along the route</desc></wpt>
  <wpt lat="55.944029" lon="9.868802"><name>Catch 359 spot 26</name><desc>Start spot 26 of 360, 41.7 km along the route</desc></wpt>
  <wpt lat="55.940351" lon="9.849784"><name>Catch 359 spot 27</name><desc>Start spot 27 of 360, 43.4 km along the route</desc></wpt>
  <wpt lat="55.937323" lon="9.830110"><name>Catch 359 spot 28</name><desc>Start spot 28 of 360, 45.0 km along the route</desc></wpt>
  <wpt lat="55.933919" lon="9.805917"><name>Catch 359 spot 29</name><desc>Start spot 29 of 360, 46.6 km along the route</desc></wpt>
  <wpt lat="55.925459" lon="9.796051"><name>Catch 359 spot 30</name><desc>Start spot 30 of 360, 48.2 km along the route</desc></wpt>
  <wpt lat="55.918157" lon="9.776633"><name>Catch 359 spot 31</name><desc>Start spot 31 of 360, 49.8 km along the route</desc></wpt>
  <wpt lat="55.905985" lon="9.767066"><name>Catch 359 spot 32</name><desc>Start spot 32 of 360, 51.4 km along the route</desc></wpt>
  <wpt lat="55.901668" lon="9.746599"><name>Catch 359 spot 33</name><desc>Start spot 33 of 360, 53.0 km along the route</desc></wpt>
  <wpt lat="55.907700" lon="9.724605"><name>Catch 359 spot 34</name><desc>Start spot 34 of 360, 54.6 km along the route</desc></wpt>
  <wpt lat="55.895842" lon="9.715821"><name>Catch 359 spot 35</name><desc>Start spot 35 of 360, 56.2 km along the route</desc></wpt>
  <wpt lat="55.893953" lon="9.691684"><name>Catch 359 spot 36</name><desc>Start spot 36 of 360, 57.8 km along the route</desc></wpt>
  <wpt lat="55.892221" lon="9.666024"><name>Catch 359 spot 37</name><desc>Start spot 37 of 360, 59.4 km along the route</desc></wpt>
  <wpt lat="55.888450" lon="9.645916"><name>Catch 359 spot 38</name><desc>Start spot 38 of 360, 61.0 km along the route</desc></wpt>
  <wpt lat="55.881030" lon="9.627171"><name>Catch 359 spot 39</name><desc>Start spot 39 of 360, 62.6 km along the route</desc></wpt>
  <wpt lat="55.872363" lon="9.607752"><name>Catch 359 spot 40</name><desc>Start spot 40 of 360, 64.2 km along the route</desc></wpt>
  <wpt lat="55.875169" lon="9.585993"><name>Catch 359 spot 41</name><desc>Start spot 41 of 360, 65.8 km along the route</desc></wpt>
  <wpt lat="55.864238" lon="9.581851"><name>Catch 359 spot 42</name><desc>Start spot 42 of 360, 67.4 km along the route</desc></wpt>
  <wpt lat="55.865768" lon="9.564309"><name>Catch 359 spot 43</name><desc>Start spot 43 of 360, 69.0 km along the route</desc></wpt>
  <wpt lat="55.865194" lon="9.549855"><name>Catch 359 spot 44</name><desc>Start spot 44 of 360, 70.6 km along the route</desc></wpt>
  <wpt lat="55.858288" lon="9.538156"><name>Catch 359 spot 45</name><desc>Start spot 45 of 360, 72.2 km along the route</desc></wpt>
  <wpt lat="55.853778" lon="9.516541"><name>Catch 359 spot 46</name><desc>Start spot 46 of 360, 73.9 km along the route</desc></wpt>
  <wpt lat="55.856262" lon="9.492636"><name>Catch 359 spot 47</name><desc>Start spot 47 of 360, 75.5 km along the route</desc></wpt>
  <wpt lat="55.858097" lon="9.470532"><name>Catch 359 spot 48</name><desc>Start spot 48 of 360, 77.1 km along the route</desc></wpt>
  <wpt lat="55.852905" lon="9.459155"><name>Catch 359 spot 49</name><desc>Start spot 49 of 360, 78.7 km along the route</desc></wpt>
  <wpt lat="55.843655" lon="9.443734"><name>Catch 359 spot 50</name><desc>Start spot 50 of 360, 80.3 km along the route</desc></wpt>
  <wpt lat="55.845087" lon="9.420978"><name>Catch 359 spot 51</name><desc>Start spot 51 of 360, 81.9 km along the route</desc></wpt>
  <wpt lat="55.841358" lon="9.406037"><name>Catch 359 spot 52</name><desc>Start spot 52 of 360, 83.5 km along the route</desc></wpt>
  <wpt lat="55.847447" lon="9.384311"><name>Catch 359 spot 53</name><desc>Start spot 53 of 360, 85.1 km along the route</desc></wpt>
  <wpt lat="55.851210" lon="9.361428"><name>Catch 359 spot 54</name><desc>Start spot 54 of 360, 86.7 km along the route</desc></wpt>
  <wpt lat="55.841564" lon="9.342409"><name>Catch 359 spot 55</name><desc>Start spot 55 of 360, 88.3 km along the route</desc></wpt>
  <wpt lat="55.842541" lon="9.320966"><name>Catch 359 spot 56</name><desc>Start spot 56 of 360, 89.9 km along the route</desc></wpt>
  <wpt lat="55.840867" lon="9.300091"><name>Catch 359 spot 57</name><desc>Start spot 57 of 360, 91.5 km along the route</desc></wpt>
  <wpt lat="55.848609" lon="9.279326"><name>Catch 359 spot 58</name><desc>Start spot 58 of 360, 93.1 km along the route</desc></wpt>
  <wpt lat="55.850168" lon="9.256095"><name>Catch 359 spot 59</name><desc>Start spot 59 of 360, 94.7 km along the route</desc></wpt>
  <wpt lat="55.842819" lon="9.240076"><name>Catch 359 spot 60</name><desc>Start spot 60 of 360, 96.3 km along the route</desc></wpt>
  <wpt lat="55.845764" lon="9.217023"><name>Catch 359 spot 61</name><desc>Start spot 61 of 360, 97.9 km along the route</desc></wpt>
  <wpt lat="55.847177" lon="9.194436"><name>Catch 359 spot 62</name><desc>Start spot 62 of 360, 99.5 km along the route</desc></wpt>
  <wpt lat="55.847381" lon="9.171448"><name>Catch 359 spot 63</name><desc>Start spot 63 of 360, 101.2 km along the route</desc></wpt>
  <wpt lat="55.840793" lon="9.151806"><name>Catch 359 spot 64</name><desc>Start spot 64 of 360, 102.8 km along the route</desc></wpt>
  <wpt lat="55.842173" lon="9.127054"><name>Catch 359 spot 65</name><desc>Start spot 65 of 360, 104.4 km along the route</desc></wpt>
  <wpt lat="55.842980" lon="9.101343"><name>Catch 359 spot 66</name><desc>Start spot 66 of 360, 106.0 km along the route</desc></wpt>
  <wpt lat="55.845267" lon="9.076011"><name>Catch 359 spot 67</name><desc>Start spot 67 of 360, 107.6 km along the route</desc></wpt>
  <wpt lat="55.844957" lon="9.055123"><name>Catch 359 spot 68</name><desc>Start spot 68 of 360, 109.2 km along the route</desc></wpt>
  <wpt lat="55.849118" lon="9.031555"><name>Catch 359 spot 69</name><desc>Start spot 69 of 360, 110.8 km along the route</desc></wpt>
  <wpt lat="55.852835" lon="9.008191"><name>Catch 359 spot 70</name><desc>Start spot 70 of 360, 112.4 km along the route</desc></wpt>
  <wpt lat="55.842442" lon="8.996265"><name>Catch 359 spot 71</name><desc>Start spot 71 of 360, 114.0 km along the route</desc></wpt>
  <wpt lat="55.837288" lon="8.983549"><name>Catch 359 spot 72</name><desc>Start spot 72 of 360, 115.6 km along the route</desc></wpt>
  <wpt lat="55.825110" lon="8.984452"><name>Catch 359 spot 73</name><desc>Start spot 73 of 360, 117.2 km along the route</desc></wpt>
  <wpt lat="55.829961" lon="8.960112"><name>Catch 359 spot 74</name><desc>Start spot 74 of 360, 118.8 km along the route</desc></wpt>
  <wpt lat="55.835228" lon="8.936053"><name>Catch 359 spot 75</name><desc>Start spot 75 of 360, 120.4 km along the route</desc></wpt>
  <wpt lat="55.837931" lon="8.911138"><name>Catch 359 spot 76</name><desc>Start spot 76 of 360, 122.0 km along the route</desc></wpt>
  <wpt lat="55.841747" lon="8.888528"><name>Catch 359 spot 77</name><desc>Start spot 77 of 360, 123.6 km along the route</desc></wpt>
  <wpt lat="55.853070" lon="8.879647"><name>Catch 359 spot 78</name><desc>Start spot 78 of 360, 125.2 km along the route</desc></wpt>
  <wpt lat="55.863945" lon="8.863862"><name>Catch 359 spot 79</name><desc>Start spot 79 of 360, 126.8 km along the route</desc></wpt>
  <wpt lat="55.876961" lon="8.854226"><name>Catch 359 spot 80</name><desc>Start spot 80 of 360, 128.4 km along the route</desc></wpt>
  <wpt lat="55.887104" lon="8.843619"><name>Catch 359 spot 81</name><desc>Start spot 81 of 360, 130.1 km along the route</desc></wpt>
  <wpt lat="55.883935" lon="8.818464"><name>Catch 359 spot 82</name><desc>Start spot 82 of 360, 131.7 km along the route</desc></wpt>
  <wpt lat="55.881103" lon="8.793144"><name>Catch 359 spot 83</name><desc>Start spot 83 of 360, 133.3 km along the route</desc></wpt>
  <wpt lat="55.889255" lon="8.772991"><name>Catch 359 spot 84</name><desc>Start spot 84 of 360, 134.9 km along the route</desc></wpt>
  <wpt lat="55.890127" lon="8.753502"><name>Catch 359 spot 85</name><desc>Start spot 85 of 360, 136.5 km along the route</desc></wpt>
  <wpt lat="55.894921" lon="8.737317"><name>Catch 359 spot 86</name><desc>Start spot 86 of 360, 138.1 km along the route</desc></wpt>
  <wpt lat="55.907334" lon="8.723918"><name>Catch 359 spot 87</name><desc>Start spot 87 of 360, 139.7 km along the route</desc></wpt>
  <wpt lat="55.919720" lon="8.710433"><name>Catch 359 spot 88</name><desc>Start spot 88 of 360, 141.3 km along the route</desc></wpt>
  <wpt lat="55.931715" lon="8.695884"><name>Catch 359 spot 89</name><desc>Start spot 89 of 360, 142.9 km along the route</desc></wpt>
  <wpt lat="55.943578" lon="8.680974"><name>Catch 359 spot 90</name><desc>Start spot 90 of 360, 144.5 km along the route</desc></wpt>
  <wpt lat="55.955450" lon="8.667528"><name>Catch 359 spot 91</name><desc>Start spot 91 of 360, 146.1 km along the route</desc></wpt>
  <wpt lat="55.958494" lon="8.643762"><name>Catch 359 spot 92</name><desc>Start spot 92 of 360, 147.7 km along the route</desc></wpt>
  <wpt lat="55.956014" lon="8.619533"><name>Catch 359 spot 93</name><desc>Start spot 93 of 360, 149.3 km along the route</desc></wpt>
  <wpt lat="55.963054" lon="8.610995"><name>Catch 359 spot 94</name><desc>Start spot 94 of 360, 150.9 km along the route</desc></wpt>
  <wpt lat="55.973283" lon="8.609709"><name>Catch 359 spot 95</name><desc>Start spot 95 of 360, 152.5 km along the route</desc></wpt>
  <wpt lat="55.978561" lon="8.588229"><name>Catch 359 spot 96</name><desc>Start spot 96 of 360, 154.1 km along the route</desc></wpt>
  <wpt lat="55.977191" lon="8.565233"><name>Catch 359 spot 97</name><desc>Start spot 97 of 360, 155.7 km along the route</desc></wpt>
  <wpt lat="55.983519" lon="8.547596"><name>Catch 359 spot 98</name><desc>Start spot 98 of 360, 157.3 km along the route</desc></wpt>
  <wpt lat="55.988748" lon="8.526628"><name>Catch 359 spot 99</name><desc>Start spot 99 of 360, 158.9 km along the route</desc></wpt>
  <wpt lat="55.995346" lon="8.506298"><name>Catch 359 spot 100</name><desc>Start spot 100 of 360, 160.6 km along the route</desc></wpt>
  <wpt lat="56.005774" lon="8.496107"><name>Catch 359 spot 101</name><desc>Start spot 101 of 360, 162.2 km along the route</desc></wpt>
  <wpt lat="56.016485" lon="8.492459"><name>Catch 359 spot 102</name><desc>Start spot 102 of 360, 163.8 km along the route</desc></wpt>
  <wpt lat="56.018235" lon="8.471766"><name>Catch 359 spot 103</name><desc>Start spot 103 of 360, 165.4 km along the route</desc></wpt>
  <wpt lat="56.029504" lon="8.470397"><name>Catch 359 spot 104</name><desc>Start spot 104 of 360, 167.0 km along the route</desc></wpt>
  <wpt lat="56.034195" lon="8.450631"><name>Catch 359 spot 105</name><desc>Start spot 105 of 360, 168.6 km along the route</desc></wpt>
  <wpt lat="56.040450" lon="8.435093"><name>Catch 359 spot 106</name><desc>Start spot 106 of 360, 170.2 km along the route</desc></wpt>
  <wpt lat="56.044876" lon="8.413926"><name>Catch 359 spot 107</name><desc>Start spot 107 of 360, 171.8 km along the route</desc></wpt>
  <wpt lat="56.055631" lon="8.402233"><name>Catch 359 spot 108</name><desc>Start spot 108 of 360, 173.4 km along the route</desc></wpt>
  <wpt lat="56.064602" lon="8.388977"><name>Catch 359 spot 109</name><desc>Start spot 109 of 360, 175.0 km along the route</desc></wpt>
  <wpt lat="56.077257" lon="8.391273"><name>Catch 359 spot 110</name><desc>Start spot 110 of 360, 176.6 km along the route</desc></wpt>
  <wpt lat="56.086322" lon="8.388244"><name>Catch 359 spot 111</name><desc>Start spot 111 of 360, 178.2 km along the route</desc></wpt>
  <wpt lat="56.092169" lon="8.373833"><name>Catch 359 spot 112</name><desc>Start spot 112 of 360, 179.8 km along the route</desc></wpt>
  <wpt lat="56.100855" lon="8.361041"><name>Catch 359 spot 113</name><desc>Start spot 113 of 360, 181.4 km along the route</desc></wpt>
  <wpt lat="56.110418" lon="8.341719"><name>Catch 359 spot 114</name><desc>Start spot 114 of 360, 183.0 km along the route</desc></wpt>
  <wpt lat="56.110971" lon="8.319345"><name>Catch 359 spot 115</name><desc>Start spot 115 of 360, 184.6 km along the route</desc></wpt>
  <wpt lat="56.123157" lon="8.316370"><name>Catch 359 spot 116</name><desc>Start spot 116 of 360, 186.2 km along the route</desc></wpt>
  <wpt lat="56.135207" lon="8.304759"><name>Catch 359 spot 117</name><desc>Start spot 117 of 360, 187.8 km along the route</desc></wpt>
  <wpt lat="56.143009" lon="8.295179"><name>Catch 359 spot 118</name><desc>Start spot 118 of 360, 189.5 km along the route</desc></wpt>
  <wpt lat="56.149423" lon="8.273320"><name>Catch 359 spot 119</name><desc>Start spot 119 of 360, 191.1 km along the route</desc></wpt>
  <wpt lat="56.159190" lon="8.260326"><name>Catch 359 spot 120</name><desc>Start spot 120 of 360, 192.7 km along the route</desc></wpt>
  <wpt lat="56.169840" lon="8.255432"><name>Catch 359 spot 121</name><desc>Start spot 121 of 360, 194.3 km along the route</desc></wpt>
  <wpt lat="56.177023" lon="8.243114"><name>Catch 359 spot 122</name><desc>Start spot 122 of 360, 195.9 km along the route</desc></wpt>
  <wpt lat="56.187188" lon="8.227366"><name>Catch 359 spot 123</name><desc>Start spot 123 of 360, 197.5 km along the route</desc></wpt>
  <wpt lat="56.197787" lon="8.219299"><name>Catch 359 spot 124</name><desc>Start spot 124 of 360, 199.1 km along the route</desc></wpt>
  <wpt lat="56.206301" lon="8.208603"><name>Catch 359 spot 125</name><desc>Start spot 125 of 360, 200.7 km along the route</desc></wpt>
  <wpt lat="56.220632" lon="8.210100"><name>Catch 359 spot 126</name><desc>Start spot 126 of 360, 202.3 km along the route</desc></wpt>
  <wpt lat="56.234363" lon="8.205192"><name>Catch 359 spot 127</name><desc>Start spot 127 of 360, 203.9 km along the route</desc></wpt>
  <wpt lat="56.242634" lon="8.187895"><name>Catch 359 spot 128</name><desc>Start spot 128 of 360, 205.5 km along the route</desc></wpt>
  <wpt lat="56.252696" lon="8.169768"><name>Catch 359 spot 129</name><desc>Start spot 129 of 360, 207.1 km along the route</desc></wpt>
  <wpt lat="56.257937" lon="8.155314"><name>Catch 359 spot 130</name><desc>Start spot 130 of 360, 208.7 km along the route</desc></wpt>
  <wpt lat="56.262047" lon="8.175885"><name>Catch 359 spot 131</name><desc>Start spot 131 of 360, 210.3 km along the route</desc></wpt>
  <wpt lat="56.270424" lon="8.188574"><name>Catch 359 spot 132</name><desc>Start spot 132 of 360, 211.9 km along the route</desc></wpt>
  <wpt lat="56.278871" lon="8.182667"><name>Catch 359 spot 133</name><desc>Start spot 133 of 360, 213.5 km along the route</desc></wpt>
  <wpt lat="56.288130" lon="8.167684"><name>Catch 359 spot 134</name><desc>Start spot 134 of 360, 215.1 km along the route</desc></wpt>
  <wpt lat="56.297665" lon="8.153263"><name>Catch 359 spot 135</name><desc>Start spot 135 of 360, 216.8 km along the route</desc></wpt>
  <wpt lat="56.306475" lon="8.135564"><name>Catch 359 spot 136</name><desc>Start spot 136 of 360, 218.4 km along the route</desc></wpt>
  <wpt lat="56.319938" lon="8.131616"><name>Catch 359 spot 137</name><desc>Start spot 137 of 360, 220.0 km along the route</desc></wpt>
  <wpt lat="56.331431" lon="8.123186"><name>Catch 359 spot 138</name><desc>Start spot 138 of 360, 221.6 km along the route</desc></wpt>
  <wpt lat="56.345937" lon="8.122698"><name>Catch 359 spot 139</name><desc>Start spot 139 of 360, 223.2 km along the route</desc></wpt>
  <wpt lat="56.360444" lon="8.122648"><name>Catch 359 spot 140</name><desc>Start spot 140 of 360, 224.8 km along the route</desc></wpt>
  <wpt lat="56.374079" lon="8.121051"><name>Catch 359 spot 141</name><desc>Start spot 141 of 360, 226.4 km along the route</desc></wpt>
  <wpt lat="56.388345" lon="8.121726"><name>Catch 359 spot 142</name><desc>Start spot 142 of 360, 228.0 km along the route</desc></wpt>
  <wpt lat="56.402843" lon="8.121930"><name>Catch 359 spot 143</name><desc>Start spot 143 of 360, 229.6 km along the route</desc></wpt>
  <wpt lat="56.417340" lon="8.123006"><name>Catch 359 spot 144</name><desc>Start spot 144 of 360, 231.2 km along the route</desc></wpt>
  <wpt lat="56.431837" lon="8.124079"><name>Catch 359 spot 145</name><desc>Start spot 145 of 360, 232.8 km along the route</desc></wpt>
  <wpt lat="56.446334" lon="8.125160"><name>Catch 359 spot 146</name><desc>Start spot 146 of 360, 234.4 km along the route</desc></wpt>
  <wpt lat="56.459998" lon="8.131767"><name>Catch 359 spot 147</name><desc>Start spot 147 of 360, 236.0 km along the route</desc></wpt>
  <wpt lat="56.471999" lon="8.131397"><name>Catch 359 spot 148</name><desc>Start spot 148 of 360, 237.6 km along the route</desc></wpt>
  <wpt lat="56.482667" lon="8.143059"><name>Catch 359 spot 149</name><desc>Start spot 149 of 360, 239.2 km along the route</desc></wpt>
  <wpt lat="56.495572" lon="8.131918"><name>Catch 359 spot 150</name><desc>Start spot 150 of 360, 240.8 km along the route</desc></wpt>
  <wpt lat="56.505197" lon="8.119195"><name>Catch 359 spot 151</name><desc>Start spot 151 of 360, 242.4 km along the route</desc></wpt>
  <wpt lat="56.519434" lon="8.119969"><name>Catch 359 spot 152</name><desc>Start spot 152 of 360, 244.0 km along the route</desc></wpt>
  <wpt lat="56.533220" lon="8.119853"><name>Catch 359 spot 153</name><desc>Start spot 153 of 360, 245.7 km along the route</desc></wpt>
  <wpt lat="56.546179" lon="8.122317"><name>Catch 359 spot 154</name><desc>Start spot 154 of 360, 247.3 km along the route</desc></wpt>
  <wpt lat="56.559970" lon="8.127232"><name>Catch 359 spot 155</name><desc>Start spot 155 of 360, 248.9 km along the route</desc></wpt>
  <wpt lat="56.571449" lon="8.135499"><name>Catch 359 spot 156</name><desc>Start spot 156 of 360, 250.5 km along the route</desc></wpt>
  <wpt lat="56.580251" lon="8.153613"><name>Catch 359 spot 157</name><desc>Start spot 157 of 360, 252.1 km along the route</desc></wpt>
  <wpt lat="56.590030" lon="8.172091"><name>Catch 359 spot 158</name><desc>Start spot 158 of 360, 253.7 km along the route</desc></wpt>
  <wpt lat="56.601431" lon="8.181494"><name>Catch 359 spot 159</name><desc>Start spot 159 of 360, 255.3 km along the route</desc></wpt>
  <wpt lat="56.614253" lon="8.176489"><name>Catch 359 spot 160</name><desc>Start spot 160 of 360, 256.9 km along the route</desc></wpt>
  <wpt lat="56.627221" lon="8.171757"><name>Catch 359 spot 161</name><desc>Start spot 161 of 360, 258.5 km along the route</desc></wpt>
  <wpt lat="56.638490" lon="8.160185"><name>Catch 359 spot 162</name><desc>Start spot 162 of 360, 260.1 km along the route</desc></wpt>
  <wpt lat="56.651761" lon="8.170416"><name>Catch 359 spot 163</name><desc>Start spot 163 of 360, 261.7 km along the route</desc></wpt>
  <wpt lat="56.664859" lon="8.180391"><name>Catch 359 spot 164</name><desc>Start spot 164 of 360, 263.3 km along the route</desc></wpt>
  <wpt lat="56.678268" lon="8.190477"><name>Catch 359 spot 165</name><desc>Start spot 165 of 360, 264.9 km along the route</desc></wpt>
  <wpt lat="56.691686" lon="8.200529"><name>Catch 359 spot 166</name><desc>Start spot 166 of 360, 266.5 km along the route</desc></wpt>
  <wpt lat="56.689862" lon="8.218512"><name>Catch 359 spot 167</name><desc>Start spot 167 of 360, 268.1 km along the route</desc></wpt>
  <wpt lat="56.684865" lon="8.236051"><name>Catch 359 spot 168</name><desc>Start spot 168 of 360, 269.7 km along the route</desc></wpt>
  <wpt lat="56.697913" lon="8.247465"><name>Catch 359 spot 169</name><desc>Start spot 169 of 360, 271.3 km along the route</desc></wpt>
  <wpt lat="56.711254" lon="8.248315"><name>Catch 359 spot 170</name><desc>Start spot 170 of 360, 272.9 km along the route</desc></wpt>
  <wpt lat="56.725736" lon="8.249249"><name>Catch 359 spot 171</name><desc>Start spot 171 of 360, 274.6 km along the route</desc></wpt>
  <wpt lat="56.740236" lon="8.250215"><name>Catch 359 spot 172</name><desc>Start spot 172 of 360, 276.2 km along the route</desc></wpt>
  <wpt lat="56.754734" lon="8.251172"><name>Catch 359 spot 173</name><desc>Start spot 173 of 360, 277.8 km along the route</desc></wpt>
  <wpt lat="56.769232" lon="8.252140"><name>Catch 359 spot 174</name><desc>Start spot 174 of 360, 279.4 km along the route</desc></wpt>
  <wpt lat="56.778191" lon="8.234906"><name>Catch 359 spot 175</name><desc>Start spot 175 of 360, 281.0 km along the route</desc></wpt>
  <wpt lat="56.791547" lon="8.234094"><name>Catch 359 spot 176</name><desc>Start spot 176 of 360, 282.6 km along the route</desc></wpt>
  <wpt lat="56.804875" lon="8.242247"><name>Catch 359 spot 177</name><desc>Start spot 177 of 360, 284.2 km along the route</desc></wpt>
  <wpt lat="56.813992" lon="8.258794"><name>Catch 359 spot 178</name><desc>Start spot 178 of 360, 285.8 km along the route</desc></wpt>
  <wpt lat="56.819109" lon="8.272056"><name>Catch 359 spot 179</name><desc>Start spot 179 of 360, 287.4 km along the route</desc></wpt>
  <wpt lat="56.826970" lon="8.291822"><name>Catch 359 spot 180</name><desc>Start spot 180 of 360, 289.0 km along the route</desc></wpt>
  <wpt lat="56.821922" lon="8.310850"><name>Catch 359 spot 181</name><desc>Start spot 181 of 360, 290.6 km along the route</desc></wpt>
  <wpt lat="56.821408" lon="8.324357"><name>Catch 359 spot 182</name><desc>Start spot 182 of 360, 292.2 km along the route</desc></wpt>
  <wpt lat="56.823324" lon="8.344550"><name>Catch 359 spot 183</name><desc>Start spot 183 of 360, 293.8 km along the route</desc></wpt>
  <wpt lat="56.826711" lon="8.347081"><name>Catch 359 spot 184</name><desc>Start spot 184 of 360, 295.4 km along the route</desc></wpt>
  <wpt lat="56.838546" lon="8.354499"><name>Catch 359 spot 185</name><desc>Start spot 185 of 360, 297.0 km along the route</desc></wpt>
  <wpt lat="56.851340" lon="8.364402"><name>Catch 359 spot 186</name><desc>Start spot 186 of 360, 298.6 km along the route</desc></wpt>
  <wpt lat="56.862233" lon="8.367252"><name>Catch 359 spot 187</name><desc>Start spot 187 of 360, 300.2 km along the route</desc></wpt>
  <wpt lat="56.872859" lon="8.371074"><name>Catch 359 spot 188</name><desc>Start spot 188 of 360, 301.8 km along the route</desc></wpt>
  <wpt lat="56.885983" lon="8.370528"><name>Catch 359 spot 189</name><desc>Start spot 189 of 360, 303.4 km along the route</desc></wpt>
  <wpt lat="56.888276" lon="8.378083"><name>Catch 359 spot 190</name><desc>Start spot 190 of 360, 305.1 km along the route</desc></wpt>
  <wpt lat="56.891588" lon="8.388783"><name>Catch 359 spot 191</name><desc>Start spot 191 of 360, 306.7 km along the route</desc></wpt>
  <wpt lat="56.899398" lon="8.409083"><name>Catch 359 spot 192</name><desc>Start spot 192 of 360, 308.3 km along the route</desc></wpt>
  <wpt lat="56.898692" lon="8.433459"><name>Catch 359 spot 193</name><desc>Start spot 193 of 360, 309.9 km along the route</desc></wpt>
  <wpt lat="56.897994" lon="8.458693"><name>Catch 359 spot 194</name><desc>Start spot 194 of 360, 311.5 km along the route</desc></wpt>
  <wpt lat="56.898557" lon="8.467615"><name>Catch 359 spot 195</name><desc>Start spot 195 of 360, 313.1 km along the route</desc></wpt>
  <wpt lat="56.908676" lon="8.474360"><name>Catch 359 spot 196</name><desc>Start spot 196 of 360, 314.7 km along the route</desc></wpt>
  <wpt lat="56.918396" lon="8.487746"><name>Catch 359 spot 197</name><desc>Start spot 197 of 360, 316.3 km along the route</desc></wpt>
  <wpt lat="56.918292" lon="8.508676"><name>Catch 359 spot 198</name><desc>Start spot 198 of 360, 317.9 km along the route</desc></wpt>
  <wpt lat="56.929588" lon="8.520494"><name>Catch 359 spot 199</name><desc>Start spot 199 of 360, 319.5 km along the route</desc></wpt>
  <wpt lat="56.941811" lon="8.528154"><name>Catch 359 spot 200</name><desc>Start spot 200 of 360, 321.1 km along the route</desc></wpt>
  <wpt lat="56.946447" lon="8.544006"><name>Catch 359 spot 201</name><desc>Start spot 201 of 360, 322.7 km along the route</desc></wpt>
  <wpt lat="56.947879" lon="8.569565"><name>Catch 359 spot 202</name><desc>Start spot 202 of 360, 324.3 km along the route</desc></wpt>
  <wpt lat="56.953209" lon="8.589470"><name>Catch 359 spot 203</name><desc>Start spot 203 of 360, 325.9 km along the route</desc></wpt>
  <wpt lat="56.960086" lon="8.610436"><name>Catch 359 spot 204</name><desc>Start spot 204 of 360, 327.5 km along the route</desc></wpt>
  <wpt lat="56.960850" lon="8.636696"><name>Catch 359 spot 205</name><desc>Start spot 205 of 360, 329.1 km along the route</desc></wpt>
  <wpt lat="56.964379" lon="8.648195"><name>Catch 359 spot 206</name><desc>Start spot 206 of 360, 330.7 km along the route</desc></wpt>
  <wpt lat="56.976922" lon="8.660225"><name>Catch 359 spot 207</name><desc>Start spot 207 of 360, 332.4 km along the route</desc></wpt>
  <wpt lat="56.988861" lon="8.670460"><name>Catch 359 spot 208</name><desc>Start spot 208 of 360, 334.0 km along the route</desc></wpt>
  <wpt lat="56.986777" lon="8.696085"><name>Catch 359 spot 209</name><desc>Start spot 209 of 360, 335.6 km along the route</desc></wpt>
  <wpt lat="56.984559" lon="8.720590"><name>Catch 359 spot 210</name><desc>Start spot 210 of 360, 337.2 km along the route</desc></wpt>
  <wpt lat="56.991604" lon="8.737389"><name>Catch 359 spot 211</name><desc>Start spot 211 of 360, 338.8 km along the route</desc></wpt>
  <wpt lat="56.996335" lon="8.755937"><name>Catch 359 spot 212</name><desc>Start spot 212 of 360, 340.4 km along the route</desc></wpt>
  <wpt lat="57.005447" lon="8.774123"><name>Catch 359 spot 213</name><desc>Start spot 213 of 360, 342.0 km along the route</desc></wpt>
  <wpt lat="57.013207" lon="8.793000"><name>Catch 359 spot 214</name><desc>Start spot 214 of 360, 343.6 km along the route</desc></wpt>
  <wpt lat="57.007972" lon="8.811175"><name>Catch 359 spot 215</name><desc>Start spot 215 of 360, 345.2 km along the route</desc></wpt>
  <wpt lat="57.014114" lon="8.829819"><name>Catch 359 spot 216</name><desc>Start spot 216 of 360, 346.8 km along the route</desc></wpt>
  <wpt lat="57.022985" lon="8.845669"><name>Catch 359 spot 217</name><desc>Start spot 217 of 360, 348.4 km along the route</desc></wpt>
  <wpt lat="57.031313" lon="8.859929"><name>Catch 359 spot 218</name><desc>Start spot 218 of 360, 350.0 km along the route</desc></wpt>
  <wpt lat="57.032021" lon="8.867982"><name>Catch 359 spot 219</name><desc>Start spot 219 of 360, 351.6 km along the route</desc></wpt>
  <wpt lat="57.036412" lon="8.893345"><name>Catch 359 spot 220</name><desc>Start spot 220 of 360, 353.2 km along the route</desc></wpt>
  <wpt lat="57.038260" lon="8.919794"><name>Catch 359 spot 221</name><desc>Start spot 221 of 360, 354.8 km along the route</desc></wpt>
  <wpt lat="57.035517" lon="8.944808"><name>Catch 359 spot 222</name><desc>Start spot 222 of 360, 356.4 km along the route</desc></wpt>
  <wpt lat="57.039378" lon="8.970508"><name>Catch 359 spot 223</name><desc>Start spot 223 of 360, 358.0 km along the route</desc></wpt>
  <wpt lat="57.043234" lon="8.990299"><name>Catch 359 spot 224</name><desc>Start spot 224 of 360, 359.6 km along the route</desc></wpt>
  <wpt lat="57.032519" lon="8.998152"><name>Catch 359 spot 225</name><desc>Start spot 225 of 360, 361.2 km along the route</desc></wpt>
  <wpt lat="57.026463" lon="9.014356"><name>Catch 359 spot 226</name><desc>Start spot 226 of 360, 362.9 km along the route</desc></wpt>
  <wpt lat="57.025514" lon="9.040589"><name>Catch 359 spot 227</name><desc>Start spot 227 of 360, 364.5 km along the route</desc></wpt>
  <wpt lat="57.024009" lon="9.065594"><name>Catch 359 spot 228</name><desc>Start spot 228 of 360, 366.1 km along the route</desc></wpt>
  <wpt lat="57.029948" lon="9.089765"><name>Catch 359 spot 229</name><desc>Start spot 229 of 360, 367.7 km along the route</desc></wpt>
  <wpt lat="57.035899" lon="9.113950"><name>Catch 359 spot 230</name><desc>Start spot 230 of 360, 369.3 km along the route</desc></wpt>
  <wpt lat="57.041873" lon="9.138252"><name>Catch 359 spot 231</name><desc>Start spot 231 of 360, 370.9 km along the route</desc></wpt>
  <wpt lat="57.044882" lon="9.156173"><name>Catch 359 spot 232</name><desc>Start spot 232 of 360, 372.5 km along the route</desc></wpt>
  <wpt lat="57.057143" lon="9.166989"><name>Catch 359 spot 233</name><desc>Start spot 233 of 360, 374.1 km along the route</desc></wpt>
  <wpt lat="57.060604" lon="9.185481"><name>Catch 359 spot 234</name><desc>Start spot 234 of 360, 375.7 km along the route</desc></wpt>
  <wpt lat="57.057360" lon="9.210412"><name>Catch 359 spot 235</name><desc>Start spot 235 of 360, 377.3 km along the route</desc></wpt>
  <wpt lat="57.053154" lon="9.230705"><name>Catch 359 spot 236</name><desc>Start spot 236 of 360, 378.9 km along the route</desc></wpt>
  <wpt lat="57.055065" lon="9.256439"><name>Catch 359 spot 237</name><desc>Start spot 237 of 360, 380.5 km along the route</desc></wpt>
  <wpt lat="57.042710" lon="9.267212"><name>Catch 359 spot 238</name><desc>Start spot 238 of 360, 382.1 km along the route</desc></wpt>
  <wpt lat="57.035649" lon="9.287615"><name>Catch 359 spot 239</name><desc>Start spot 239 of 360, 383.7 km along the route</desc></wpt>
  <wpt lat="57.029183" lon="9.305306"><name>Catch 359 spot 240</name><desc>Start spot 240 of 360, 385.3 km along the route</desc></wpt>
  <wpt lat="57.017047" lon="9.298440"><name>Catch 359 spot 241</name><desc>Start spot 241 of 360, 386.9 km along the route</desc></wpt>
  <wpt lat="57.006070" lon="9.289724"><name>Catch 359 spot 242</name><desc>Start spot 242 of 360, 388.5 km along the route</desc></wpt>
  <wpt lat="56.997803" lon="9.304944"><name>Catch 359 spot 243</name><desc>Start spot 243 of 360, 390.1 km along the route</desc></wpt>
  <wpt lat="57.002099" lon="9.330074"><name>Catch 359 spot 244</name><desc>Start spot 244 of 360, 391.8 km along the route</desc></wpt>
  <wpt lat="57.007985" lon="9.353998"><name>Catch 359 spot 245</name><desc>Start spot 245 of 360, 393.4 km along the route</desc></wpt>
  <wpt lat="57.010065" lon="9.380064"><name>Catch 359 spot 246</name><desc>Start spot 246 of 360, 395.0 km along the route</desc></wpt>
  <wpt lat="57.002742" lon="9.391029"><name>Catch 359 spot 247</name><desc>Start spot 247 of 360, 396.6 km along the route</desc></wpt>
  <wpt lat="57.007900" lon="9.415899"><name>Catch 359 spot 248</name><desc>Start spot 248 of 360, 398.2 km along the route</desc></wpt>
  <wpt lat="57.003853" lon="9.432099"><name>Catch 359 spot 249</name><desc>Start spot 249 of 360, 399.8 km along the route</desc></wpt>
  <wpt lat="57.003798" lon="9.447097"><name>Catch 359 spot 250</name><desc>Start spot 250 of 360, 401.4 km along the route</desc></wpt>
  <wpt lat="57.001071" lon="9.466411"><name>Catch 359 spot 251</name><desc>Start spot 251 of 360, 403.0 km along the route</desc></wpt>
  <wpt lat="57.010584" lon="9.484910"><name>Catch 359 spot 252</name><desc>Start spot 252 of 360, 404.6 km along the route</desc></wpt>
  <wpt lat="57.003893" lon="9.506621"><name>Catch 359 spot 253</name><desc>Start spot 253 of 360, 406.2 km along the route</desc></wpt>
  <wpt lat="56.995241" lon="9.526056"><name>Catch 359 spot 254</name><desc>Start spot 254 of 360, 407.8 km along the route</desc></wpt>
  <wpt lat="56.992687" lon="9.551028"><name>Catch 359 spot 255</name><desc>Start spot 255 of 360, 409.4 km along the route</desc></wpt>
  <wpt lat="56.981137" lon="9.563632"><name>Catch 359 spot 256</name><desc>Start spot 256 of 360, 411.0 km along the route</desc></wpt>
  <wpt lat="56.969126" lon="9.563922"><name>Catch 359 spot 257</name><desc>Start spot 257 of 360, 412.6 km along the route</desc></wpt>
  <wpt lat="56.960819" lon="9.583128"><name>Catch 359 spot 258</name><desc>Start spot 258 of 360, 414.2 km along the route</desc></wpt>
  <wpt lat="56.964780" lon="9.608420"><name>Catch 359 spot 259</name><desc>Start spot 259 of 360, 415.8 km along the route</desc></wpt>
  <wpt lat="56.974833" lon="9.625547"><name>Catch 359 spot 260</name><desc>Start spot 260 of 360, 417.4 km along the route</desc></wpt>
  <wpt lat="56.984021" lon="9.642958"><name>Catch 359 spot 261</name><desc>Start spot 261 of 360, 419.1 km along the route</desc></wpt>
  <wpt lat="56.994082" lon="9.660741"><name>Catch 359 spot 262</name><desc>Start spot 262 of 360, 420.7 km along the route</desc></wpt>
  <wpt lat="56.998455" lon="9.684247"><name>Catch 359 spot 263</name><desc>Start spot 263 of 360, 422.3 km along the route</desc></wpt>
  <wpt lat="56.999447" lon="9.710791"><name>Catch 359 spot 264</name><desc>Start spot 264 of 360, 423.9 km along the route</desc></wpt>
  <wpt lat="56.990653" lon="9.724219"><name>Catch 359 spot 265</name><desc>Start spot 265 of 360, 425.5 km along the route</desc></wpt>
  <wpt lat="56.987150" lon="9.747360"><name>Catch 359 spot 266</name><desc>Start spot 266 of 360, 427.1 km along the route</desc></wpt>
  <wpt lat="56.982197" lon="9.771379"><name>Catch 359 spot 267</name><desc>Start spot 267 of 360, 428.7 km along the route</desc></wpt>
  <wpt lat="56.975096" lon="9.790724"><name>Catch 359 spot 268</name><desc>Start spot 268 of 360, 430.3 km along the route</desc></wpt>
  <wpt lat="56.970252" lon="9.815205"><name>Catch 359 spot 269</name><desc>Start spot 269 of 360, 431.9 km along the route</desc></wpt>
  <wpt lat="56.970113" lon="9.841299"><name>Catch 359 spot 270</name><desc>Start spot 270 of 360, 433.5 km along the route</desc></wpt>
  <wpt lat="56.971779" lon="9.858403"><name>Catch 359 spot 271</name><desc>Start spot 271 of 360, 435.1 km along the route</desc></wpt>
  <wpt lat="56.970864" lon="9.880790"><name>Catch 359 spot 272</name><desc>Start spot 272 of 360, 436.7 km along the route</desc></wpt>
  <wpt lat="56.957259" lon="9.888022"><name>Catch 359 spot 273</name><desc>Start spot 273 of 360, 438.3 km along the route</desc></wpt>
  <wpt lat="56.945512" lon="9.894468"><name>Catch 359 spot 274</name><desc>Start spot 274 of 360, 439.9 km along the route</desc></wpt>
  <wpt lat="56.935262" lon="9.901565"><name>Catch 359 spot 275</name><desc>Start spot 275 of 360, 441.5 km along the route</desc></wpt>
  <wpt lat="56.923433" lon="9.906542"><name>Catch 359 spot 276</name><desc>Start spot 276 of 360, 443.1 km along the route</desc></wpt>
  <wpt lat="56.926324" lon="9.924937"><name>Catch 359 spot 277</name><desc>Start spot 277 of 360, 444.7 km along the route</desc></wpt>
  <wpt lat="56.919309" lon="9.946976"><name>Catch 359 spot 278</name><desc>Start spot 278 of 360, 446.3 km along the route</desc></wpt>
  <wpt lat="56.912826" lon="9.966906"><name>Catch 359 spot 279</name><desc>Start spot 279 of 360, 447.9 km along the route</desc></wpt>
  <wpt lat="56.904330" lon="9.977715"><name>Catch 359 spot 280</name><desc>Start spot 280 of 360, 449.6 km along the route</desc></wpt>
  <wpt lat="56.897019" lon="9.989962"><name>Catch 359 spot 281</name><desc>Start spot 281 of 360, 451.2 km along the route</desc></wpt>
  <wpt lat="56.886800" lon="10.004958"><name>Catch 359 spot 282</name><desc>Start spot 282 of 360, 452.8 km along the route</desc></wpt>
  <wpt lat="56.879689" lon="10.023714"><name>Catch 359 spot 283</name><desc>Start spot 283 of 360, 454.4 km along the route</desc></wpt>
  <wpt lat="56.869078" lon="10.032055"><name>Catch 359 spot 284</name><desc>Start spot 284 of 360, 456.0 km along the route</desc></wpt>
  <wpt lat="56.871005" lon="10.053693"><name>Catch 359 spot 285</name><desc>Start spot 285 of 360, 457.6 km along the route</desc></wpt>
  <wpt lat="56.863990" lon="10.074444"><name>Catch 359 spot 286</name><desc>Start spot 286 of 360, 459.2 km along the route</desc></wpt>
  <wpt lat="56.853364" lon="10.089065"><name>Catch 359 spot 287</name><desc>Start spot 287 of 360, 460.8 km along the route</desc></wpt>
  <wpt lat="56.839738" lon="10.091577"><name>Catch 359 spot 288</name><desc>Start spot 288 of 360, 462.4 km along the route</desc></wpt>
  <wpt lat="56.826992" lon="10.087457"><name>Catch 359 spot 289</name><desc>Start spot 289 of 360, 464.0 km along the route</desc></wpt>
  <wpt lat="56.815961" lon="10.104177"><name>Catch 359 spot 290</name><desc>Start spot 290 of 360, 465.6 km along the route</desc></wpt>
  <wpt lat="56.810781" lon="10.127978"><name>Catch 359 spot 291</name><desc>Start spot 291 of 360, 467.2 km along the route</desc></wpt>
  <wpt lat="56.802390" lon="10.148936"><name>Catch 359 spot 292</name><desc>Start spot 292 of 360, 468.8 km along the route</desc></wpt>
  <wpt lat="56.791916" lon="10.167056"><name>Catch 359 spot 293</name><desc>Start spot 293 of 360, 470.4 km along the route</desc></wpt>
  <wpt lat="56.778744" lon="10.176999"><name>Catch 359 spot 294</name><desc>Start spot 294 of 360, 472.0 km along the route</desc></wpt>
  <wpt lat="56.765105" lon="10.184706"><name>Catch 359 spot 295</name><desc>Start spot 295 of 360, 473.6 km along the route</desc></wpt>
  <wpt lat="56.753047" lon="10.192296"><name>Catch 359 spot 296</name><desc>Start spot 296 of 360, 475.2 km along the route</desc></wpt>
  <wpt lat="56.741387" lon="10.180112"><name>Catch 359 spot 297</name><desc>Start spot 297 of 360, 476.9 km along the route</desc></wpt>
  <wpt lat="56.735799" lon="10.155771"><name>Catch 359 spot 298</name><desc>Start spot 298 of 360, 478.5 km along the route</desc></wpt>
  <wpt lat="56.726991" lon="10.135913"><name>Catch 359 spot 299</name><desc>Start spot 299 of 360, 480.1 km along the route</desc></wpt>
  <wpt lat="56.717306" lon="10.118056"><name>Catch 359 spot 300</name><desc>Start spot 300 of 360, 481.7 km along the route</desc></wpt>
  <wpt lat="56.707682" lon="10.126580"><name>Catch 359 spot 301</name><desc>Start spot 301 of 360, 483.3 km along the route</desc></wpt>
  <wpt lat="56.698874" lon="10.140538"><name>Catch 359 spot 302</name><desc>Start spot 302 of 360, 484.9 km along the route</desc></wpt>
  <wpt lat="56.688538" lon="10.156921"><name>Catch 359 spot 303</name><desc>Start spot 303 of 360, 486.5 km along the route</desc></wpt>
  <wpt lat="56.678642" lon="10.149149"><name>Catch 359 spot 304</name><desc>Start spot 304 of 360, 488.1 km along the route</desc></wpt>
  <wpt lat="56.665866" lon="10.152725"><name>Catch 359 spot 305</name><desc>Start spot 305 of 360, 489.7 km along the route</desc></wpt>
  <wpt lat="56.654348" lon="10.167388"><name>Catch 359 spot 306</name><desc>Start spot 306 of 360, 491.3 km along the route</desc></wpt>
  <wpt lat="56.653537" lon="10.189332"><name>Catch 359 spot 307</name><desc>Start spot 307 of 360, 492.9 km along the route</desc></wpt>
  <wpt lat="56.661871" lon="10.208411"><name>Catch 359 spot 308</name><desc>Start spot 308 of 360, 494.5 km along the route</desc></wpt>
  <wpt lat="56.674108" lon="10.221402"><name>Catch 359 spot 309</name><desc>Start spot 309 of 360, 496.1 km along the route</desc></wpt>
  <wpt lat="56.684108" lon="10.231868"><name>Catch 359 spot 310</name><desc>Start spot 310 of 360, 497.7 km along the route</desc></wpt>
  <wpt lat="56.691814" lon="10.253228"><name>Catch 359 spot 311</name><desc>Start spot 311 of 360, 499.3 km along the route</desc></wpt>
  <wpt lat="56.687136" lon="10.266826"><name>Catch 359 spot 312</name><desc>Start spot 312 of 360, 500.9 km along the route</desc></wpt>
  <wpt lat="56.680610" lon="10.287342"><name>Catch 359 spot 313</name><desc>Start spot 313 of 360, 502.5 km along the route</desc></wpt>
  <wpt lat="56.669800" lon="10.281281"><name>Catch 359 spot 314</name><desc>Start spot 314 of 360, 504.1 km along the route</desc></wpt>
  <wpt lat="56.658295" lon="10.290742"><name>Catch 359 spot 315</name><desc>Start spot 315 of 360, 505.8 km along the route</desc></wpt>
  <wpt lat="56.654541" lon="10.307019"><name>Catch 359 spot 316</name><desc>Start spot 316 of 360, 507.4 km along the route</desc></wpt>
  <wpt lat="56.644115" lon="10.316417"><name>Catch 359 spot 317</name><desc>Start spot 317 of 360, 509.0 km along the route</desc></wpt>
  <wpt lat="56.630388" lon="10.310789"><name>Catch 359 spot 318</name><desc>Start spot 318 of 360, 510.6 km along the route</desc></wpt>
  <wpt lat="56.621359" lon="10.296131"><name>Catch 359 spot 319</name><desc>Start spot 319 of 360, 512.2 km along the route</desc></wpt>
  <wpt lat="56.607815" lon="10.301688"><name>Catch 359 spot 320</name><desc>Start spot 320 of 360, 513.8 km along the route</desc></wpt>
  <wpt lat="56.595987" lon="10.315934"><name>Catch 359 spot 321</name><desc>Start spot 321 of 360, 515.4 km along the route</desc></wpt>
  <wpt lat="56.582828" lon="10.326206"><name>Catch 359 spot 322</name><desc>Start spot 322 of 360, 517.0 km along the route</desc></wpt>
  <wpt lat="56.571824" lon="10.339685"><name>Catch 359 spot 323</name><desc>Start spot 323 of 360, 518.6 km along the route</desc></wpt>
  <wpt lat="56.561601" lon="10.347942"><name>Catch 359 spot 324</name><desc>Start spot 324 of 360, 520.2 km along the route</desc></wpt>
  <wpt lat="56.550980" lon="10.358794"><name>Catch 359 spot 325</name><desc>Start spot 325 of 360, 521.8 km along the route</desc></wpt>
  <wpt lat="56.546718" lon="10.335072"><name>Catch 359 spot 326</name><desc>Start spot 326 of 360, 523.4 km along the route</desc></wpt>
  <wpt lat="56.537967" lon="10.331004"><name>Catch 359 spot 327</name><desc>Start spot 327 of 360, 525.0 km along the route</desc></wpt>
  <wpt lat="56.525113" lon="10.339270"><name>Catch 359 spot 328</name><desc>Start spot 328 of 360, 526.6 km along the route</desc></wpt>
  <wpt lat="56.513624" lon="10.340834"><name>Catch 359 spot 329</name><desc>Start spot 329 of 360, 528.2 km along the route</desc></wpt>
  <wpt lat="56.502000" lon="10.335731"><name>Catch 359 spot 330</name><desc>Start spot 330 of 360, 529.8 km along the route</desc></wpt>
  <wpt lat="56.489099" lon="10.324911"><name>Catch 359 spot 331</name><desc>Start spot 331 of 360, 531.4 km along the route</desc></wpt>
  <wpt lat="56.475166" lon="10.321495"><name>Catch 359 spot 332</name><desc>Start spot 332 of 360, 533.0 km along the route</desc></wpt>
  <wpt lat="56.470526" lon="10.334470"><name>Catch 359 spot 333</name><desc>Start spot 333 of 360, 534.6 km along the route</desc></wpt>
  <wpt lat="56.459839" lon="10.340262"><name>Catch 359 spot 334</name><desc>Start spot 334 of 360, 536.3 km along the route</desc></wpt>
  <wpt lat="56.450085" lon="10.359578"><name>Catch 359 spot 335</name><desc>Start spot 335 of 360, 537.9 km along the route</desc></wpt>
  <wpt lat="56.437082" lon="10.364142"><name>Catch 359 spot 336</name><desc>Start spot 336 of 360, 539.5 km along the route</desc></wpt>
  <wpt lat="56.434239" lon="10.352566"><name>Catch 359 spot 337</name><desc>Start spot 337 of 360, 541.1 km along the route</desc></wpt>
  <wpt lat="56.429119" lon="10.374144"><name>Catch 359 spot 338</name><desc>Start spot 338 of 360, 542.7 km along the route</desc></wpt>
  <wpt lat="56.417416" lon="10.367809"><name>Catch 359 spot 339</name><desc>Start spot 339 of 360, 544.3 km along the route</desc></wpt>
  <wpt lat="56.404682" lon="10.358822"><name>Catch 359 spot 340</name><desc>Start spot 340 of 360, 545.9 km along the route</desc></wpt>
  <wpt lat="56.393281" lon="10.347335"><name>Catch 359 spot 341</name><desc>Start spot 341 of 360, 547.5 km along the route</desc></wpt>
  <wpt lat="56.380701" lon="10.339778"><name>Catch 359 spot 342</name><desc>Start spot 342 of 360, 549.1 km along the route</desc></wpt>
  <wpt lat="56.370181" lon="10.347642"><name>Catch 359 spot 343</name><desc>Start spot 343 of 360, 550.7 km along the route</desc></wpt>
  <wpt lat="56.356486" lon="10.348295"><name>Catch 359 spot 344</name><desc>Start spot 344 of 360, 552.3 km along the route</desc></wpt>
  <wpt lat="56.343833" lon="10.342050"><name>Catch 359 spot 345</name><desc>Start spot 345 of 360, 553.9 km along the route</desc></wpt>
  <wpt lat="56.331095" lon="10.331688"><name>Catch 359 spot 346</name><desc>Start spot 346 of 360, 555.5 km along the route</desc></wpt>
  <wpt lat="56.317640" lon="10.322076"><name>Catch 359 spot 347</name><desc>Start spot 347 of 360, 557.1 km along the route</desc></wpt>
  <wpt lat="56.303733" lon="10.316900"><name>Catch 359 spot 348</name><desc>Start spot 348 of 360, 558.7 km along the route</desc></wpt>
  <wpt lat="56.289854" lon="10.312382"><name>Catch 359 spot 349</name><desc>Start spot 349 of 360, 560.3 km along the route</desc></wpt>
  <wpt lat="56.275946" lon="10.310234"><name>Catch 359 spot 350</name><desc>Start spot 350 of 360, 561.9 km along the route</desc></wpt>
  <wpt lat="56.267295" lon="10.303687"><name>Catch 359 spot 351</name><desc>Start spot 351 of 360, 563.5 km along the route</desc></wpt>
  <wpt lat="56.254582" lon="10.303247"><name>Catch 359 spot 352</name><desc>Start spot 352 of 360, 565.2 km along the route</desc></wpt>
  <wpt lat="56.242714" lon="10.299578"><name>Catch 359 spot 353</name><desc>Start spot 353 of 360, 566.8 km along the route</desc></wpt>
  <wpt lat="56.229759" lon="10.291609"><name>Catch 359 spot 354</name><desc>Start spot 354 of 360, 568.4 km along the route</desc></wpt>
  <wpt lat="56.216709" lon="10.281730"><name>Catch 359 spot 355</name><desc>Start spot 355 of 360, 570.0 km along the route</desc></wpt>
  <wpt lat="56.205357" lon="10.269815"><name>Catch 359 spot 356</name><desc>Start spot 356 of 360, 571.6 km along the route</desc></wpt>
  <wpt lat="56.196904" lon="10.251021"><name>Catch 359 spot 357</name><desc>Start spot 357 of 360, 573.2 km along the route</desc></wpt>
  <wpt lat="56.185488" lon="10.237208"><name>Catch 359 spot 358</name><desc>Start spot 358 of 360, 574.8 km along the route</desc></wpt>
  <wpt lat="56.172546" lon="10.225892"><name>Catch 359 spot 359</name><desc>Start spot 359 of 360, 576.4 km along the route</desc></wpt>
</gpx>
